[Satellite]
VERSION=1.1
NAME=AMC-8 (GE-8)
NICKNAME=AMC-8 (GE-8)
TLE1=1 26639U 00081B   15054.64252786  .00000079  00000-0  00000+0 0  9995
TLE2=2 26639   0.0214 297.4047 0002119  48.8066 259.2633  1.00273040 51927
